[{"OBJECT_NAME":"STARLINK-4000","OBJECT_ID":"2022-052H","EPOCH":"2026-03-09T20:49:44.253120","MEAN_MOTION":15.08841209,"ECCENTRICITY":0.00013298,"INCLINATION":53.2186,"RA_OF_ASC_NODE":283.1015,"ARG_OF_PERICENTER":76.0724,"MEAN_ANOMALY":284.0416,"EPHEMERIS_TYPE":0,"CLASSIFICATION_TYPE":"U","NORAD_CAT_ID":52605,"ELEMENT_SET_NO":999,"REV_AT_EPOCH":21081,"BSTAR":-0.00015962011,"MEAN_MOTION_DOT":-2.827e-5,"MEAN_MOTION_DDOT":0},{"OBJECT_NAME":"SL-24 PLAT","OBJECT_ID":"2014-033AR","EPOCH":"2026-03-09T22:47:27.152448","MEAN_MOTION":15.0919716,"ECCENTRICITY":0.00052059,"INCLINATION":98.0981,"RA_OF_ASC_NODE":61.9435,"ARG_OF_PERICENTER":212.2329,"MEAN_ANOMALY":147.8581,"EPHEMERIS_TYPE":0,"CLASSIFICATION_TYPE":"U","NORAD_CAT_ID":40049,"ELEMENT_SET_NO":999,"REV_AT_EPOCH":63724,"BSTAR":0.00046923352,"MEAN_MOTION_DOT":7.393e-5,"MEAN_MOTION_DDOT":0}]
